{
  "norad_id": 59358,
  "name": "STARLINK-31559",
  "history": [
    {
      "epoch": "2026-04-16T13:02:50.419104Z",
      "apogee_km": 483.73056625750087,
      "perigee_km": 482.36107416658615,
      "latitude_deg": -8.456560428024e-06,
      "longitude_deg": 5.547977151045002,
      "height_km": 482.6691535766835,
      "semi_major_axis_km": 6861.182820212043,
      "eccentricity": 9.98e-05,
      "inclination_deg": 43.0014,
      "raan_deg": 45.9479,
      "arg_perigee_deg": 282.9267,
      "mean_anomaly_deg": 77.1473,
      "mean_motion_rev_day": 15.27581094
    },
    {
      "epoch": "2026-04-17T04:44:24.330048Z",
      "apogee_km": 483.71966869201515,
      "perigee_km": 482.3982023548333,
      "latitude_deg": 8.36584860979428e-06,
      "longitude_deg": 125.81942211464055,
      "height_km": 482.7658777890204,
      "semi_major_axis_km": 6861.195935523424,
      "eccentricity": 9.63e-05,
      "inclination_deg": 43.0022,
      "raan_deg": 42.2551,
      "arg_perigee_deg": 276.0496,
      "mean_anomaly_deg": 84.0246,
      "mean_motion_rev_day": 15.27576714
    },
    {
      "epoch": "2026-04-18T12:07:32.354976Z",
      "apogee_km": 483.25388866399226,
      "perigee_km": 482.8685637716071,
      "latitude_deg": 3.3462560432932056e-05,
      "longitude_deg": 6.357853348387421,
      "height_km": 482.84413714173206,
      "semi_major_axis_km": 6861.198226217799,
      "eccentricity": 2.808e-05,
      "inclination_deg": 43.0047,
      "raan_deg": 34.8659,
      "arg_perigee_deg": 268.0062,
      "mean_anomaly_deg": 92.0758,
      "mean_motion_rev_day": 15.27575949
    },
    {
      "epoch": "2026-04-19T11:39:52.754400Z",
      "apogee_km": 483.7971677485075,
      "perigee_km": 482.3100732934163,
      "latitude_deg": -2.2862257350140583e-05,
      "longitude_deg": 6.76648270404511,
      "height_km": 482.3150838185725,
      "semi_major_axis_km": 6861.190620520962,
      "eccentricity": 0.00010837,
      "inclination_deg": 43.006,
      "raan_deg": 29.3263,
      "arg_perigee_deg": 46.2846,
      "mean_anomaly_deg": 313.8095,
      "mean_motion_rev_day": 15.27578489
    },
    {
      "epoch": "2026-04-20T11:12:14.757408Z",
      "apogee_km": 483.8162212647994,
      "perigee_km": 482.38222289438545,
      "latitude_deg": 1.5847550139565206e-05,
      "longitude_deg": 7.1714124331655915,
      "height_km": 482.7894076714951,
      "semi_major_axis_km": 6861.236222079592,
      "eccentricity": 0.0001045,
      "inclination_deg": 43.0042,
      "raan_deg": 23.7896,
      "arg_perigee_deg": 276.9442,
      "mean_anomaly_deg": 83.1291,
      "mean_motion_rev_day": 15.2756326
    },
    {
      "epoch": "2026-04-21T02:53:49.285248Z",
      "apogee_km": 483.70235213378146,
      "perigee_km": 482.51961020678755,
      "latitude_deg": -1.808270660625598e-05,
      "longitude_deg": 127.44042325465544,
      "height_km": 482.8359504793364,
      "semi_major_axis_km": 6861.247981170284,
      "eccentricity": 8.619e-05,
      "inclination_deg": 43.0046,
      "raan_deg": 20.097,
      "arg_perigee_deg": 275.024,
      "mean_anomaly_deg": 85.0513,
      "mean_motion_rev_day": 15.27559333
    },
    {
      "epoch": "2026-04-22T02:26:08.595168Z",
      "apogee_km": 483.759756377799,
      "perigee_km": 482.3737932152908,
      "latitude_deg": 4.163449222767401e-06,
      "longitude_deg": 127.85348648192613,
      "height_km": 482.3985550221908,
      "semi_major_axis_km": 6861.203774796545,
      "eccentricity": 0.000101,
      "inclination_deg": 43.0075,
      "raan_deg": 14.5572,
      "arg_perigee_deg": 309.9822,
      "mean_anomaly_deg": 50.0941,
      "mean_motion_rev_day": 15.27574096
    },
    {
      "epoch": "2026-04-23T01:58:29.418816Z",
      "apogee_km": 483.7655199067185,
      "perigee_km": 482.2814508937272,
      "latitude_deg": 2.3973801361904923e-05,
      "longitude_deg": 128.2608228616314,
      "height_km": 482.5096305211708,
      "semi_major_axis_km": 6861.160485400223,
      "eccentricity": 0.00010815,
      "inclination_deg": 43.007,
      "raan_deg": 9.018,
      "arg_perigee_deg": 293.0916,
      "mean_anomaly_deg": 66.9822,
      "mean_motion_rev_day": 15.27588553
    },
    {
      "epoch": "2026-04-24T09:21:36.768960Z",
      "apogee_km": 483.8322461909829,
      "perigee_km": 482.2116404485714,
      "latitude_deg": 5.428218658181618e-06,
      "longitude_deg": 8.806223955506983,
      "height_km": 482.6729826748902,
      "semi_major_axis_km": 6861.158943319777,
      "eccentricity": 0.0001181,
      "inclination_deg": 43.0025,
      "raan_deg": 1.633,
      "arg_perigee_deg": 278.9285,
      "mean_anomaly_deg": 81.1433,
      "mean_motion_rev_day": 15.27589068
    },
    {
      "epoch": "2026-04-25T01:03:10.626336Z",
      "apogee_km": 483.74993136664307,
      "perigee_km": 482.3534050251192,
      "latitude_deg": 2.9358433332469634e-05,
      "longitude_deg": 129.078598663948,
      "height_km": 482.89477951595234,
      "semi_major_axis_km": 6861.188668195881,
      "eccentricity": 0.00010177,
      "inclination_deg": 43.0035,
      "raan_deg": 357.9409,
      "arg_perigee_deg": 264.5464,
      "mean_anomaly_deg": 95.5272,
      "mean_motion_rev_day": 15.27579141
    },
    {
      "epoch": "2026-04-26T16:17:05.895744Z",
      "apogee_km": 483.81581853986063,
      "perigee_km": 482.3394223778305,
      "latitude_deg": -1.3825017214354524e-05,
      "longitude_deg": -110.24433804176049,
      "height_km": 482.7672064677628,
      "semi_major_axis_km": 6861.214620458845,
      "eccentricity": 0.00010759,
      "inclination_deg": 43.0033,
      "raan_deg": 348.7095,
      "arg_perigee_deg": 276.7852,
      "mean_anomaly_deg": 83.2877,
      "mean_motion_rev_day": 15.27570474
    },
    {
      "epoch": "2026-04-27T07:58:39.912096Z",
      "apogee_km": 483.62025868574983,
      "perigee_km": 482.5348145460566,
      "latitude_deg": -4.597553818864413e-05,
      "longitude_deg": 10.026513655507552,
      "height_km": 482.78643868239453,
      "semi_major_axis_km": 6861.214536615903,
      "eccentricity": 7.91e-05,
      "inclination_deg": 43.0019,
      "raan_deg": 345.0166,
      "arg_perigee_deg": 277.1437,
      "mean_anomaly_deg": 82.9324,
      "mean_motion_rev_day": 15.27570502
    },
    {
      "epoch": "2026-04-28T07:31:00.787584Z",
      "apogee_km": 483.6988825305016,
      "perigee_km": 482.45014203526534,
      "latitude_deg": 2.6075026941966933e-07,
      "longitude_deg": 10.43416472752882,
      "height_km": 482.7798715463592,
      "semi_major_axis_km": 6861.211512282883,
      "eccentricity": 9.1e-05,
      "inclination_deg": 43.0012,
      "raan_deg": 339.4779,
      "arg_perigee_deg": 276.535,
      "mean_anomaly_deg": 83.5398,
      "mean_motion_rev_day": 15.27571512
    },
    {
      "epoch": "2026-04-29T21:10:48.844128Z",
      "apogee_km": 484.9592646387682,
      "perigee_km": 481.4284237863367,
      "latitude_deg": 1.867565837242544e-05,
      "longitude_deg": 155.07407068834794,
      "height_km": 482.455276880399,
      "semi_major_axis_km": 6861.330844212553,
      "eccentricity": 0.0002573,
      "inclination_deg": 43.0095,
      "raan_deg": 330.6148,
      "arg_perigee_deg": 287.0355,
      "mean_anomaly_deg": 73.0215,
      "mean_motion_rev_day": 15.27531661
    },
    {
      "epoch": "2026-04-30T14:26:29.786496Z",
      "apogee_km": 484.27663708491764,
      "perigee_km": 481.90210386262424,
      "latitude_deg": 1.930388942662706e-05,
      "longitude_deg": -108.61812148619539,
      "height_km": 482.7991279355672,
      "semi_major_axis_km": 6861.226370473771,
      "eccentricity": 0.00017304,
      "inclination_deg": 43.0066,
      "raan_deg": 326.5521,
      "arg_perigee_deg": 273.2811,
      "mean_anomaly_deg": 86.7843,
      "mean_motion_rev_day": 15.2756655
    },
    {
      "epoch": "2026-05-02T05:40:23.918880Z",
      "apogee_km": 483.854195458689,
      "perigee_km": 482.2912118881932,
      "latitude_deg": -6.763227529896001e-07,
      "longitude_deg": 12.061814744502138,
      "height_km": 482.5813740746375,
      "semi_major_axis_km": 6861.209703673441,
      "eccentricity": 0.0001139,
      "inclination_deg": 43.0039,
      "raan_deg": 317.3188,
      "arg_perigee_deg": 290.0732,
      "mean_anomaly_deg": 69.9997,
      "mean_motion_rev_day": 15.27572116
    },
    {
      "epoch": "2026-05-03T20:54:17.801568Z",
      "apogee_km": 483.6857644175816,
      "perigee_km": 482.36018831014735,
      "latitude_deg": 2.792416487483043e-05,
      "longitude_deg": 132.7476437607556,
      "height_km": 482.91321615793544,
      "semi_major_axis_km": 6861.159976363864,
      "eccentricity": 9.66e-05,
      "inclination_deg": 43.0015,
      "raan_deg": 308.0903,
      "arg_perigee_deg": 260.1155,
      "mean_anomaly_deg": 99.9588,
      "mean_motion_rev_day": 15.27588723
    },
    {
      "epoch": "2026-05-04T20:26:39.217056Z",
      "apogee_km": 483.7531537334444,
      "perigee_km": 482.3767966172236,
      "latitude_deg": 1.787980935465767e-05,
      "longitude_deg": 133.15267445351722,
      "height_km": 482.97056238452205,
      "semi_major_axis_km": 6861.201975175334,
      "eccentricity": 0.0001003,
      "inclination_deg": 43.0008,
      "raan_deg": 302.5513,
      "arg_perigee_deg": 259.1814,
      "mean_anomaly_deg": 100.8925,
      "mean_motion_rev_day": 15.27574697
    },
    {
      "epoch": "2026-05-05T12:08:12.918912Z",
      "apogee_km": 483.69817150442486,
      "perigee_km": 482.37122089837976,
      "latitude_deg": -4.786697555471355e-06,
      "longitude_deg": -106.57625267945201,
      "height_km": 482.7624315302878,
      "semi_major_axis_km": 6861.171696201402,
      "eccentricity": 9.67e-05,
      "inclination_deg": 42.9997,
      "raan_deg": 298.8573,
      "arg_perigee_deg": 274.1978,
      "mean_anomaly_deg": 85.8763,
      "mean_motion_rev_day": 15.27584809
    }
  ]
}